{
    "links": {
        "self": "http://www.neowsapp.com/rest/v1/neo/3394777?api_key=iIulBulltgU6a56xZRHN4H3l9WmuAYTsLGpBGhQ2"
    },
    "id": "3394777",
    "neo_reference_id": "3394777",
    "name": "(2007 VF191)",
    "designation": "2007 VF191",
    "nasa_jpl_url": "http://ssd.jpl.nasa.gov/sbdb.cgi?sstr=3394777",
    "absolute_magnitude_h": 22.4,
    "estimated_diameter": {
        "kilometers": {
            "estimated_diameter_min": 0.0880146521,
            "estimated_diameter_max": 0.1968067451
        },
        "meters": {
            "estimated_diameter_min": 88.0146520901,
            "estimated_diameter_max": 196.8067450894
        },
        "miles": {
            "estimated_diameter_min": 0.0546897524,
            "estimated_diameter_max": 0.122290004
        },
        "feet": {
            "estimated_diameter_min": 288.7619911632,
            "estimated_diameter_max": 645.6914415591
        }
    },
    "is_potentially_hazardous_asteroid": false,
    "close_approach_data": [
        {
            "close_approach_date": "2007-11-04",
            "close_approach_date_full": "2007-Nov-04 11:31",
            "epoch_date_close_approach": 1194175860000,
            "relative_velocity": {
                "kilometers_per_second": "6.3078969686",
                "kilometers_per_hour": "22708.4290868318",
                "miles_per_hour": "14110.1347289817"
            },
            "miss_distance": {
                "astronomical": "0.1879308001",
                "lunar": "73.1050812389",
                "kilometers": "28114047.402355787",
                "miles": "17469258.9955203806"
            },
            "orbiting_body": "Earth"
        }
    ],
    "orbital_data": {
        "orbit_id": "10",
        "orbit_determination_date": "2017-04-06 09:05:08",
        "first_observation_date": "2007-11-15",
        "last_observation_date": "2007-12-16",
        "data_arc_in_days": 31,
        "observations_used": 23,
        "orbit_uncertainty": "8",
        "minimum_orbit_intersection": ".172205",
        "jupiter_tisserand_invariant": "3.808",
        "epoch_osculation": "2454424.5",
        "eccentricity": ".4100734283256399",
        "semi_major_axis": "1.91107512762019",
        "inclination": "10.99881394939499",
        "ascending_node_longitude": "67.22835424243767",
        "orbital_period": "964.9727896072743",
        "perihelion_distance": "1.127393998249119",
        "perihelion_argument": "318.5984988322836",
        "aphelion_distance": "2.694756256991262",
        "perihelion_time": "2454388.916503583160",
        "mean_anomaly": "13.27504655885256",
        "mean_motion": ".3730675143145883",
        "equinox": "J2000",
        "orbit_class": {
            "orbit_class_type": "AMO",
            "orbit_class_description": "Near-Earth asteroid orbits similar to that of 1221 Amor",
            "orbit_class_range": "1.017 AU < q (perihelion) < 1.3 AU"
        }
    },
    "is_sentry_object": false
}